STARLINK-35031          
1 65404U 25192A   26166.25847339  .00015657  00000+0  47366-3 0  9992
2 65404  53.1572 148.3180 0001020  95.6393 264.4726 15.34392177 44198
STARLINK-34830          
1 65405U 25192B   26166.22550735  .00039965  00000+0  12910-2 0  9995
2 65405  53.1563 138.8732 0002093 130.5650 229.5534 15.31741218 44338
STARLINK-35036          
1 65406U 25192C   26166.27308598  .00013679  00000+0  47306-3 0  9991
2 65406  53.1579 139.1610 0001229  86.9214 273.1927 15.30202809 44322
STARLINK-35035          
1 65407U 25192D   26166.20460701  .00024313  00000+0  83001-3 0  9999
2 65407  53.1585 139.4454 0001091  36.2326 323.8749 15.30212436 44320
STARLINK-35008          
1 65408U 25192E   26166.20144086  .00017342  00000+0  59628-3 0  9997
2 65408  53.1589 139.4232 0001308  83.7692 276.3458 15.30200272 44316
STARLINK-35022          
1 65409U 25192F   26166.20715854  .00014911  00000+0  49111-3 0  9990
2 65409  53.1571 138.7514 0001079  84.4337 275.6787 15.31712963 44326
STARLINK-35024          
1 65410U 25192G   26166.27707679  .00006767  00000+0  22958-3 0  9995
2 65410  53.1571 138.4777 0001211  89.8324 270.2816 15.31708460 44331
STARLINK-34983          
1 65411U 25192H   26166.19715495  .00017845  00000+0  58524-3 0  9999
2 65411  53.1582 138.6874 0001149  77.7740 282.3390 15.31710564 44320
STARLINK-34992          
1 65412U 25192J   26166.20182249  .00014802  00000+0  48764-3 0  9992
2 65412  53.1570 138.7138 0001108  69.4702 290.6419 15.31711324 44300
STARLINK-35003          
1 65413U 25192K   26166.29630843  .00016848  00000+0  57983-3 0  9995
2 65413  53.1572 139.2989 0001155 102.4096 257.7034 15.30190609 44324
STARLINK-34238          
1 65415U 25192M   26166.22571107  .00008262  00000+0  29082-3 0  9997
2 65415  53.1578 139.5708 0001471  90.7492 269.3677 15.30194759 44315
STARLINK-34855          
1 65416U 25192N   26166.23731956  .00010790  00000+0  37592-3 0  9993
2 65416  53.1577 139.6447 0001586  95.3185 264.7997 15.30196617 44312
STARLINK-34255          
1 65417U 25192P   26166.21937627  .00011795  00000+0  40971-3 0  9996
2 65417  53.1579 139.5316 0000962 114.8738 245.2363 15.30201010 44312
STARLINK-34997          
1 65418U 25192Q   26166.20249530  .00016188  00000+0  55745-3 0  9991
2 65418  53.1588 139.4301 0001092  80.1749 279.9375 15.30202008 44313
STARLINK-35085          
1 65419U 25192R   26166.23906986  .00014184  00000+0  46791-3 0  9995
2 65419  53.1581 138.2464 0001296  92.7743 267.3406 15.31702866 44339
STARLINK-35138          
1 65420U 25192S   26166.21649449  .00012732  00000+0  42119-3 0  9990
2 65420  53.1571 138.8113 0001414  84.8114 275.3049 15.31711548 44321
STARLINK-35146          
1 65421U 25192T   26166.22115487  .00022062  00000+0  71991-3 0  9999
2 65421  53.1573 138.8324 0001155  61.5277 298.5840 15.31730817 44317
STARLINK-35074          
1 65422U 25192U   26166.20566877  .00013549  00000+0  46842-3 0  9998
2 65422  53.1577 139.4402 0001166  95.0549 265.0585 15.30223050 44312
STARLINK-34837          
1 65423U 25192V   26166.16492550  .00012716  00000+0  42058-3 0  9990
2 65423  53.1578 139.1967 0001018  74.8320 285.2794 15.31718401 44311
STARLINK-34670          
1 65424U 25192W   26166.14623606  .00017098  00000+0  56110-3 0  9999
2 65424  53.1570 139.0759 0001161  90.1687 269.9447 15.31720658 44319
STARLINK-35095          
1 65425U 25192X   26166.18858583  .00024846  00000+0  80941-3 0  9996
2 65425  53.1591 139.3395 0001672  87.2855 272.8338 15.31713041 44313
STARLINK-34883          
1 65426U 25192Y   26166.24354114  .00011111  00000+0  38670-3 0  9998
2 65426  53.1585 138.9707 0001280  64.7379 295.3754 15.30198776 44318
STARLINK-34916          
1 65427U 25192Z   26166.24670622  .00015351  00000+0  52947-3 0  9997
2 65427  53.1589 138.9905 0001403  81.2256 278.8903 15.30192740 44326
STARLINK-35004          
1 65428U 25192AA  26166.22254454  .00022606  00000+0  77304-3 0  9992
2 65428  53.1569 139.5440 0001207  84.6360 275.4779 15.30200604 44313
STARLINK-35014          
1 65429U 25192AB  26166.22782069  .00012246  00000+0  42491-3 0  9999
2 65429  53.1582 139.5809 0001369  89.2186 270.8972 15.30198647 44311
STARLINK-35025          
1 65430U 25192AC  26166.26471614  .00017251  00000+0  52056-3 0  9995
2 65430  53.1586 138.3994 0001003  67.0846 293.0263 15.34397422 44339
STARLINK-35034          
1 65431U 25192AD  26166.21726638  .00012535  00000+0  43447-3 0  9994
2 65431  53.1573 139.5121 0001247  87.4488 272.6656 15.30212593 44317
STARLINK-35142          
1 65434U 25194A   26166.18286746  .00001000  00000+0  73235-4 0  9990
2 65434  97.3591  19.4822 0002376  87.8355 272.3145 15.05661663 44313
STARLINK-34978          
1 65435U 25194B   26166.13580327  .00001177  00000+0  85528-4 0  9991
2 65435  97.3598  19.5638 0002051  86.0263 274.1199 15.05656117 44313
STARLINK-35043          
1 65436U 25194C   26166.18279675  .00001327  00000+0  98094-4 0  9997
2 65436  97.4698  20.3882 0002736  85.1355 275.0184 15.04836063 44345
