OBJECT_NAME,OBJECT_ID,EPOCH,MEAN_MOTION,ECCENTRICITY,INCLINATION,RA_OF_ASC_NODE,ARG_OF_PERICENTER,MEAN_ANOMALY,EPHEMERIS_TYPE,CLASSIFICATION_TYPE,NORAD_CAT_ID,ELEMENT_SET_NO,REV_AT_EPOCH,BSTAR,MEAN_MOTION_DOT,MEAN_MOTION_DDOT
STARLINK-35031,2025-192A,2026-06-15T06:12:12.100896,15.34392177,.00010206,53.1572,148.3180,95.6393,264.4726,0,U,65404,999,4419,.47365731E-3,.15657E-3,0
STARLINK-34830,2025-192B,2026-06-15T05:24:43.835040,15.31741218,.00020937,53.1563,138.8732,130.5650,229.5534,0,U,65405,999,4433,.12910438E-2,.39965E-3,0
STARLINK-35036,2025-192C,2026-06-15T06:33:14.628672,15.30202809,.00012291,53.1579,139.1610,86.9214,273.1927,0,U,65406,999,4432,.47306441E-3,.13679E-3,0
STARLINK-35035,2025-192D,2026-06-15T04:54:38.045664,15.30212436,.00010916,53.1585,139.4454,36.2326,323.8749,0,U,65407,999,4432,.83001205E-3,.24313E-3,0
STARLINK-35008,2025-192E,2026-06-15T04:50:04.490304,15.30200272,.00013084,53.1589,139.4232,83.7692,276.3458,0,U,65408,999,4431,.59627981E-3,.17342E-3,0
STARLINK-35022,2025-192F,2026-06-15T04:58:18.497856,15.31712963,.00010793,53.1571,138.7514,84.4337,275.6787,0,U,65409,999,4432,.49111474E-3,.14911E-3,0
STARLINK-35024,2025-192G,2026-06-15T06:38:59.434656,15.31708460,.00012116,53.1571,138.4777,89.8324,270.2816,0,U,65410,999,4433,.22957784E-3,.6767E-4,0
STARLINK-34983,2025-192H,2026-06-15T04:43:54.187680,15.31710564,.00011496,53.1582,138.6874,77.7740,282.3390,0,U,65411,999,4432,.58524231E-3,.17845E-3,0
STARLINK-34992,2025-192J,2026-06-15T04:50:37.463136,15.31711324,.00011086,53.1570,138.7138,69.4702,290.6419,0,U,65412,999,4430,.48764221E-3,.14802E-3,0
STARLINK-35003,2025-192K,2026-06-15T07:06:41.048352,15.30190609,.00011551,53.1572,139.2989,102.4096,257.7034,0,U,65413,999,4432,.57982625E-3,.16848E-3,0
STARLINK-34238,2025-192M,2026-06-15T05:25:01.436448,15.30194759,.00014712,53.1578,139.5708,90.7492,269.3677,0,U,65415,999,4431,.29081747E-3,.8262E-4,0
STARLINK-34855,2025-192N,2026-06-15T05:41:44.409984,15.30196617,.00015865,53.1577,139.6447,95.3185,264.7997,0,U,65416,999,4431,.37592245E-3,.1079E-3,0
STARLINK-34255,2025-192P,2026-06-15T05:15:54.109728,15.30201010,.0000962,53.1579,139.5316,114.8738,245.2363,0,U,65417,999,4431,.40971277E-3,.11795E-3,0
STARLINK-34997,2025-192Q,2026-06-15T04:51:35.593920,15.30202008,.00010921,53.1588,139.4301,80.1749,279.9375,0,U,65418,999,4431,.5574471E-3,.16188E-3,0
STARLINK-35085,2025-192R,2026-06-15T05:44:15.635904,15.31702866,.00012967,53.1581,138.2464,92.7743,267.3406,0,U,65419,999,4433,.46791189E-3,.14184E-3,0
STARLINK-35138,2025-192S,2026-06-15T05:11:45.123936,15.31711548,.0001414,53.1571,138.8113,84.8114,275.3049,0,U,65420,999,4432,.42119453E-3,.12732E-3,0
STARLINK-35146,2025-192T,2026-06-15T05:18:27.780768,15.31730817,.00011557,53.1573,138.8324,61.5277,298.5840,0,U,65421,999,4431,.71991086E-3,.22062E-3,0
STARLINK-35074,2025-192U,2026-06-15T04:56:09.781728,15.30223050,.00011662,53.1577,139.4402,95.0549,265.0585,0,U,65422,999,4431,.46841693E-3,.13549E-3,0
STARLINK-34837,2025-192V,2026-06-15T03:57:29.563200,15.31718401,.00010189,53.1578,139.1967,74.8320,285.2794,0,U,65423,999,4431,.42057701E-3,.12716E-3,0
STARLINK-34670,2025-192W,2026-06-15T03:30:34.795584,15.31720658,.00011618,53.1570,139.0759,90.1687,269.9447,0,U,65424,999,4431,.56110154E-3,.17098E-3,0
STARLINK-35095,2025-192X,2026-06-15T04:31:33.815712,15.31713041,.00016725,53.1591,139.3395,87.2855,272.8338,0,U,65425,999,4431,.80940563E-3,.24846E-3,0
STARLINK-34883,2025-192Y,2026-06-15T05:50:41.954496,15.30198776,.00012802,53.1585,138.9707,64.7379,295.3754,0,U,65426,999,4431,.38670242E-3,.11111E-3,0
STARLINK-34916,2025-192Z,2026-06-15T05:55:15.417408,15.30192740,.00014033,53.1589,138.9905,81.2256,278.8903,0,U,65427,999,4432,.52946979E-3,.15351E-3,0
STARLINK-35004,2025-192AA,2026-06-15T05:20:27.848256,15.30200604,.00012071,53.1569,139.5440,84.6360,275.4779,0,U,65428,999,4431,.7730408E-3,.22606E-3,0
STARLINK-35014,2025-192AB,2026-06-15T05:28:03.707616,15.30198647,.00013699,53.1582,139.5809,89.2186,270.8972,0,U,65429,999,4431,.4249116E-3,.12246E-3,0
STARLINK-35025,2025-192AC,2026-06-15T06:21:11.474496,15.34397422,.00010037,53.1586,138.3994,67.0846,293.0263,0,U,65430,999,4433,.52056337E-3,.17251E-3,0
STARLINK-35034,2025-192AD,2026-06-15T05:12:51.815232,15.30212593,.00012474,53.1573,139.5121,87.4488,272.6656,0,U,65431,999,4431,.43446513E-3,.12535E-3,0
STARLINK-35142,2025-194A,2026-06-15T04:23:19.748544,15.05661663,.00023767,97.3591,19.4822,87.8355,272.3145,0,U,65434,999,4431,.73235346E-4,.1E-4,0
STARLINK-34978,2025-194B,2026-06-15T03:15:33.402528,15.05656117,.00020517,97.3598,19.5638,86.0263,274.1199,0,U,65435,999,4431,.85527934E-4,.1177E-4,0
STARLINK-35043,2025-194C,2026-06-15T04:23:13.639200,15.04836063,.00027364,97.4698,20.3882,85.1355,275.0184,0,U,65436,999,4434,.98093536E-4,.1327E-4,0
